IRIDIUM 33 DEB          
1 36081U 97051VN  17345.79010343  .00001901  00000-0  56272-3 0  9993
2 36081  86.2380 170.9504 0068873 130.5505 230.1719 14.41544008433480
